{
  "type": "FeatureCollection",
  "features": [
    {
      "type": "Feature",
      "properties": {
        "norad_id": 33886,
        "name": "IRIDIUM 33 DEB",
        "group": "iridium-33-debris",
        "lat": 84.0945237511694,
        "lon": -154.08769046329863,
        "alt_km": 768.2385267349937,
        "timestamp": "2025-12-21T07:34:34.899941+00:00",
        "meta_object_name": "IRIDIUM 33 DEB",
        "meta_object_id": "1997-051BF",
        "meta_epoch": "2025-12-20T16:37:10.552800",
        "meta_mean_motion": 14.36060348,
        "meta_eccentricity": 0.00129968,
        "meta_inclination": 86.3824,
        "meta_ra_of_asc_node": 63.8814,
        "meta_arg_of_pericenter": 213.1254,
        "meta_mean_anomaly": 261.885,
        "meta_ephemeris_type": 0,
        "meta_classification_type": "U",
        "meta_norad_cat_id": 33886,
        "meta_element_set_no": 999,
        "meta_rev_at_epoch": 88166,
        "meta_bstar": 0.00013250943,
        "meta_mean_motion_dot": 4.05e-06,
        "meta_mean_motion_ddot": 0,
        "tle_line1": "1 33886U 97051BF  25354.69248325  .00000405  00000+0  13251-3 0  9991",
        "tle_line2": "2 33886  86.3824  63.8814 0012996 213.1254 261.8850 14.36060348881660"
      },
      "geometry": {
        "type": "Point",
        "coordinates": [
          -154.08769046329863,
          84.0945237511694
        ]
      }
    },
    {
      "type": "Feature",
      "properties": {
        "norad_id": 33887,
        "name": "IRIDIUM 33 DEB",
        "group": "iridium-33-debris",
        "lat": 66.70290283141848,
        "lon": 8.329566325768909,
        "alt_km": 763.4337228751392,
        "timestamp": "2025-12-21T07:34:34.899951+00:00",
        "meta_object_name": "IRIDIUM 33 DEB",
        "meta_object_id": "1997-051BG",
        "meta_epoch": "2025-12-20T01:28:45.668352",
        "meta_mean_motion": 14.37227129,
        "meta_eccentricity": 0.00051987,
        "meta_inclination": 86.3041,
        "meta_ra_of_asc_node": 0.2367,
        "meta_arg_of_pericenter": 196.9799,
        "meta_mean_anomaly": 225.7634,
        "meta_ephemeris_type": 0,
        "meta_classification_type": "U",
        "meta_norad_cat_id": 33887,
        "meta_element_set_no": 999,
        "meta_rev_at_epoch": 88270,
        "meta_bstar": 0.00010697181,
        "meta_mean_motion_dot": 3.38e-06,
        "meta_mean_motion_ddot": 0,
        "tle_line1": "1 33887U 97051BG  25354.06163968  .00000338  00000+0  10697-3 0  9998",
        "tle_line2": "2 33887  86.3041   0.2367 0005198 196.9799 225.7634 14.37227129882706"
      },
      "geometry": {
        "type": "Point",
        "coordinates": [
          8.329566325768909,
          66.70290283141848
        ]
      }
    },
    {
      "type": "Feature",
      "properties": {
        "norad_id": 33953,
        "name": "IRIDIUM 33 DEB",
        "group": "iridium-33-debris",
        "lat": 57.804017771055534,
        "lon": -135.7067493944317,
        "alt_km": 693.7010595010033,
        "timestamp": "2025-12-21T07:34:34.899961+00:00",
        "meta_object_name": "IRIDIUM 33 DEB",
        "meta_object_id": "1997-051BN",
        "meta_epoch": "2025-12-20T15:12:49.112064",
        "meta_mean_motion": 14.55391351,
        "meta_eccentricity": 0.0017918,
        "meta_inclination": 86.384,
        "meta_ra_of_asc_node": 50.3533,
        "meta_arg_of_pericenter": 78.7274,
        "meta_mean_anomaly": 73.2547,
        "meta_ephemeris_type": 0,
        "meta_classification_type": "U",
        "meta_norad_cat_id": 33953,
        "meta_element_set_no": 999,
        "meta_rev_at_epoch": 88418,
        "meta_bstar": 0.0006589,
        "meta_mean_motion_dot": 2.887e-05,
        "meta_mean_motion_ddot": 0,
        "tle_line1": "1 33953U 97051BN  25354.63390176  .00002887  00000+0  65890-3 0  9994",
        "tle_line2": "2 33953  86.3840  50.3533 0017918  78.7274  73.2547 14.55391351884188"
      },
      "geometry": {
        "type": "Point",
        "coordinates": [
          -135.7067493944317,
          57.804017771055534
        ]
      }
    },
    {
      "type": "Feature",
      "properties": {
        "norad_id": 33960,
        "name": "IRIDIUM 33 DEB",
        "group": "iridium-33-debris",
        "lat": 47.52639992327394,
        "lon": 101.36560062129874,
        "alt_km": 607.351676171571,
        "timestamp": "2025-12-21T07:34:34.899970+00:00",
        "meta_object_name": "IRIDIUM 33 DEB",
        "meta_object_id": "1997-051BV",
        "meta_epoch": "2025-12-20T19:54:30.770784",
        "meta_mean_motion": 14.855592,
        "meta_eccentricity": 0.00073702,
        "meta_inclination": 86.2542,
        "meta_ra_of_asc_node": 285.6986,
        "meta_arg_of_pericenter": 47.5357,
        "meta_mean_anomaly": 6.3643,
        "meta_ephemeris_type": 0,
        "meta_classification_type": "U",
        "meta_norad_cat_id": 33960,
        "meta_element_set_no": 999,
        "meta_rev_at_epoch": 88987,
        "meta_bstar": 0.0019147871,
        "meta_mean_motion_dot": 0.00016604,
        "meta_mean_motion_ddot": 0,
        "tle_line1": "1 33960U 97051BV  25354.82952281  .00016604  00000+0  19148-2 0  9990",
        "tle_line2": "2 33960  86.2542 285.6986 0007370  47.5357   6.3643 14.85559200889873"
      },
      "geometry": {
        "type": "Point",
        "coordinates": [
          101.36560062129874,
          47.52639992327394
        ]
      }
    },
    {
      "type": "Feature",
      "properties": {
        "norad_id": 33966,
        "name": "IRIDIUM 33 DEB",
        "group": "iridium-33-debris",
        "lat": 69.98784102802492,
        "lon": 52.32474458437706,
        "alt_km": 720.2440024830212,
        "timestamp": "2025-12-21T07:34:34.899980+00:00",
        "meta_object_name": "IRIDIUM 33 DEB",
        "meta_object_id": "1997-051CB",
        "meta_epoch": "2025-12-20T09:48:07.873344",
        "meta_mean_motion": 14.49621404,
        "meta_eccentricity": 0.00082754,
        "meta_inclination": 86.3914,
        "meta_ra_of_asc_node": 42.7361,
        "meta_arg_of_pericenter": 163.9635,
        "meta_mean_anomaly": 214.8558,
        "meta_ephemeris_type": 0,
        "meta_classification_type": "U",
        "meta_norad_cat_id": 33966,
        "meta_element_set_no": 999,
        "meta_rev_at_epoch": 88553,
        "meta_bstar": 0.00035675491,
        "meta_mean_motion_dot": 1.39e-05,
        "meta_mean_motion_ddot": 0,
        "tle_line1": "1 33966U 97051CB  25354.40842446  .00001390  00000+0  35675-3 0  9991",
        "tle_line2": "2 33966  86.3914  42.7361 0008275 163.9635 214.8558 14.49621404885535"
      },
      "geometry": {
        "type": "Point",
        "coordinates": [
          52.32474458437706,
          69.98784102802492
        ]
      }
    },
    {
      "type": "Feature",
      "properties": {
        "norad_id": 34071,
        "name": "IRIDIUM 33 DEB",
        "group": "iridium-33-debris",
        "lat": 46.813666014014416,
        "lon": -169.80426952706762,
        "alt_km": 718.6354109677013,
        "timestamp": "2025-12-21T07:34:34.899989+00:00",
        "meta_object_name": "IRIDIUM 33 DEB",
        "meta_object_id": "1997-051CE",
        "meta_epoch": "2025-12-20T07:46:13.736640",
        "meta_mean_motion": 14.49495052,
        "meta_eccentricity": 0.00099424,
        "meta_inclination": 86.3449,
        "meta_ra_of_asc_node": 14.5318,
        "meta_arg_of_pericenter": 87.1409,
        "meta_mean_anomaly": 273.0933,
        "meta_ephemeris_type": 0,
        "meta_classification_type": "U",
        "meta_norad_cat_id": 34071,
        "meta_element_set_no": 999,
        "meta_rev_at_epoch": 88444,
        "meta_bstar": 0.00041457819,
        "meta_mean_motion_dot": 1.609e-05,
        "meta_mean_motion_ddot": 0,
        "tle_line1": "1 34071U 97051CE  25354.32377010  .00001609  00000+0  41458-3 0  9999",
        "tle_line2": "2 34071  86.3449  14.5318 0009942  87.1409 273.0933 14.49495052884444"
      },
      "geometry": {
        "type": "Point",
        "coordinates": [
          -169.80426952706762,
          46.813666014014416
        ]
      }
    },
    {
      "type": "Feature",
      "properties": {
        "norad_id": 34077,
        "name": "IRIDIUM 33 DEB",
        "group": "iridium-33-debris",
        "lat": 86.38090704724011,
        "lon": 139.53845937626363,
        "alt_km": 668.5142623037473,
        "timestamp": "2025-12-21T07:34:34.899999+00:00",
        "meta_object_name": "IRIDIUM 33 DEB",
        "meta_object_id": "1997-051CL",
        "meta_epoch": "2025-12-20T15:28:27.275232",
        "meta_mean_motion": 14.64914051,
        "meta_eccentricity": 0.0009286,
        "meta_inclination": 86.3851,
        "meta_ra_of_asc_node": 48.0252,
        "meta_arg_of_pericenter": 14.2051,
        "meta_mean_anomaly": 139.8659,
        "meta_ephemeris_type": 0,
        "meta_classification_type": "U",
        "meta_norad_cat_id": 34077,
        "meta_element_set_no": 999,
        "meta_rev_at_epoch": 88448,
        "meta_bstar": 0.00067746,
        "meta_mean_motion_dot": 3.646e-05,
        "meta_mean_motion_ddot": 0,
        "tle_line1": "1 34077U 97051CL  25354.64476013  .00003646  00000+0  67746-3 0  9994",
        "tle_line2": "2 34077  86.3851  48.0252 0009286  14.2051 139.8659 14.64914051884481"
      },
      "geometry": {
        "type": "Point",
        "coordinates": [
          139.53845937626363,
          86.38090704724011
        ]
      }
    }
  ]
}